SOYUZ-MS 28             
1 66664U 25275A   25361.56640462  .00014449  00000+0  26180-3 0  9990
2 66664  51.6320  69.0472 0003237 310.8255  49.2453 15.49876615545153
FORMOSAT-8A             
1 66666U 25276A   25361.83446206  .00004278  00000+0  34525-3 0  9994
2 66666  97.6577  73.5517 0004182 178.8380 181.2854 15.00374750  4354
PELICAN-5               
1 66667U 25276B   25361.83535808  .00010570  00000+0  52815-3 0  9996
2 66667  97.4407  73.3485 0002515 193.8502 166.2664 15.17643371  4413
TRANSPORTER-15C         
1 66668U 25276C   25360.52837249  .00016393  00000+0  71782-3 0  9999
2 66668  97.4332  71.9879 0016178 258.9437 100.9979 15.21988406  4210
TRANSPORTER-15D         
1 66669U 25276D   25360.20014095  .00024063  00000+0  12000-2 0  9991
2 66669  97.4282  71.6689 0007470 258.0077 102.0320 15.17501415  4160
HUNITY                  
1 66670U 25276E   25361.65163234  .00027043  00000+0  13483-2 0  9990
2 66670  97.4292  73.0939 0007168 251.5984 108.4470 15.17488808  4386
TRANSPORTER-15F         
1 66671U 25276F   25361.78206654  .00014394  00000+0  72570-3 0  9997
2 66671  97.4415  73.2681 0005253 230.7841 129.2927 15.17243656  4405
TRANSPORTER-15G         
1 66672U 25276G   25361.78859075  .00006194  00000+0  31969-3 0  9995
2 66672  97.4390  73.2499 0005613 228.2440 131.8314 15.16667919  4402
TRANSPORTER-15H         
1 66673U 25276H   25361.37969420 -.00950427  00000+0 -46481-1 0  9999
2 66673  97.4328  72.8449 0023173 289.0638  70.8087 15.20590437  4346
TRANSPORTER-15J         
1 66674U 25276J   25361.78644089  .00009572  00000+0  49022-3 0  9996
2 66674  97.4367  73.2449 0005153 232.7047 127.3717 15.16796613  4406
TRANSPORTER-15K         
1 66675U 25276K   25361.45363705  .00013990  00000+0  70796-3 0  9995
2 66675  97.4381  72.9300 0005159 238.5367 121.5363 15.17118493  4352
TRANSPORTER-15L         
1 66676U 25276L   25361.25584134  .00963103  00000+0  38399-1 0  9996
2 66676  97.4375  72.7381 0024796 254.3833 105.4666 15.22294330  4320
