CCSDS_OMM_VERS = 2.0
CREATION_DATE  = 
ORIGINATOR     = 

OBJECT_NAME    = SOYUZ-MS 28
OBJECT_ID      = 2025-275A
CENTER_NAME    = EARTH
REF_FRAME      = TEME
TIME_SYSTEM    = UTC
MEAN_ELEMENT_THEORY = SGP/SGP4

EPOCH          = 2025-12-27T13:35:37.359168
MEAN_MOTION    = 15.49876615
ECCENTRICITY   = .0003237
INCLINATION    = 51.6320
RA_OF_ASC_NODE = 69.0472
ARG_OF_PERICENTER = 310.8255
MEAN_ANOMALY   = 49.2453

EPHEMERIS_TYPE = 0
CLASSIFICATION_TYPE = U
NORAD_CAT_ID   = 66664
ELEMENT_SET_NO = 999
REV_AT_EPOCH   = 54515
BSTAR          = .2618E-3
MEAN_MOTION_DOT = .14449E-3
MEAN_MOTION_DDOT = 0

CCSDS_OMM_VERS = 2.0
CREATION_DATE  = 
ORIGINATOR     = 

OBJECT_NAME    = FORMOSAT-8A
OBJECT_ID      = 2025-276A
CENTER_NAME    = EARTH
REF_FRAME      = TEME
TIME_SYSTEM    = UTC
MEAN_ELEMENT_THEORY = SGP/SGP4

EPOCH          = 2025-12-27T20:01:37.521984
MEAN_MOTION    = 15.00374750
ECCENTRICITY   = .0004182
INCLINATION    = 97.6577
RA_OF_ASC_NODE = 73.5517
ARG_OF_PERICENTER = 178.8380
MEAN_ANOMALY   = 181.2854

EPHEMERIS_TYPE = 0
CLASSIFICATION_TYPE = U
NORAD_CAT_ID   = 66666
ELEMENT_SET_NO = 999
REV_AT_EPOCH   = 435
BSTAR          = .34525E-3
MEAN_MOTION_DOT = .4278E-4
MEAN_MOTION_DDOT = 0

CCSDS_OMM_VERS = 2.0
CREATION_DATE  = 
ORIGINATOR     = 

OBJECT_NAME    = PELICAN-5
OBJECT_ID      = 2025-276B
CENTER_NAME    = EARTH
REF_FRAME      = TEME
TIME_SYSTEM    = UTC
MEAN_ELEMENT_THEORY = SGP/SGP4

EPOCH          = 2025-12-27T20:02:54.938112
MEAN_MOTION    = 15.17643371
ECCENTRICITY   = .0002515
INCLINATION    = 97.4407
RA_OF_ASC_NODE = 73.3485
ARG_OF_PERICENTER = 193.8502
MEAN_ANOMALY   = 166.2664

EPHEMERIS_TYPE = 0
CLASSIFICATION_TYPE = U
NORAD_CAT_ID   = 66667
ELEMENT_SET_NO = 999
REV_AT_EPOCH   = 441
BSTAR          = .52815E-3
MEAN_MOTION_DOT = .1057E-3
MEAN_MOTION_DDOT = 0

CCSDS_OMM_VERS = 2.0
CREATION_DATE  = 
ORIGINATOR     = 

OBJECT_NAME    = TRANSPORTER-15C
OBJECT_ID      = 2025-276C
CENTER_NAME    = EARTH
REF_FRAME      = TEME
TIME_SYSTEM    = UTC
MEAN_ELEMENT_THEORY = SGP/SGP4

EPOCH          = 2025-12-26T12:40:51.383136
MEAN_MOTION    = 15.21988406
ECCENTRICITY   = .0016178
INCLINATION    = 97.4332
RA_OF_ASC_NODE = 71.9879
ARG_OF_PERICENTER = 258.9437
MEAN_ANOMALY   = 100.9979

EPHEMERIS_TYPE = 0
CLASSIFICATION_TYPE = U
NORAD_CAT_ID   = 66668
ELEMENT_SET_NO = 999
REV_AT_EPOCH   = 421
BSTAR          = .71782E-3
MEAN_MOTION_DOT = .16393E-3
MEAN_MOTION_DDOT = 0

CCSDS_OMM_VERS = 2.0
CREATION_DATE  = 
ORIGINATOR     = 

OBJECT_NAME    = TRANSPORTER-15D
OBJECT_ID      = 2025-276D
CENTER_NAME    = EARTH
REF_FRAME      = TEME
TIME_SYSTEM    = UTC
MEAN_ELEMENT_THEORY = SGP/SGP4

EPOCH          = 2025-12-26T04:48:12.178080
MEAN_MOTION    = 15.17501415
ECCENTRICITY   = .000747
INCLINATION    = 97.4282
RA_OF_ASC_NODE = 71.6689
ARG_OF_PERICENTER = 258.0077
MEAN_ANOMALY   = 102.0320

EPHEMERIS_TYPE = 0
CLASSIFICATION_TYPE = U
NORAD_CAT_ID   = 66669
ELEMENT_SET_NO = 999
REV_AT_EPOCH   = 416
BSTAR          = .12E-2
MEAN_MOTION_DOT = .24063E-3
MEAN_MOTION_DDOT = 0

CCSDS_OMM_VERS = 2.0
CREATION_DATE  = 
ORIGINATOR     = 

OBJECT_NAME    = HUNITY
OBJECT_ID      = 2025-276E
CENTER_NAME    = EARTH
REF_FRAME      = TEME
TIME_SYSTEM    = UTC
MEAN_ELEMENT_THEORY = SGP/SGP4

EPOCH          = 2025-12-27T15:38:21.034176
MEAN_MOTION    = 15.17488808
ECCENTRICITY   = .0007168
INCLINATION    = 97.4292
RA_OF_ASC_NODE = 73.0939
ARG_OF_PERICENTER = 251.5984
MEAN_ANOMALY   = 108.4470

EPHEMERIS_TYPE = 0
CLASSIFICATION_TYPE = U
NORAD_CAT_ID   = 66670
ELEMENT_SET_NO = 999
REV_AT_EPOCH   = 438
BSTAR          = .13483E-2
MEAN_MOTION_DOT = .27043E-3
MEAN_MOTION_DDOT = 0

CCSDS_OMM_VERS = 2.0
CREATION_DATE  = 
ORIGINATOR     = 

OBJECT_NAME    = TRANSPORTER-15F
OBJECT_ID      = 2025-276F
CENTER_NAME    = EARTH
REF_FRAME      = TEME
TIME_SYSTEM    = UTC
MEAN_ELEMENT_THEORY = SGP/SGP4

EPOCH          = 2025-12-27T18:46:10.549056
MEAN_MOTION    = 15.17243656
ECCENTRICITY   = .0005253
INCLINATION    = 97.4415
RA_OF_ASC_NODE = 73.2681
ARG_OF_PERICENTER = 230.7841
MEAN_ANOMALY   = 129.2927

EPHEMERIS_TYPE = 0
CLASSIFICATION_TYPE = U
NORAD_CAT_ID   = 66671
ELEMENT_SET_NO = 999
REV_AT_EPOCH   = 440
BSTAR          = .7257E-3
MEAN_MOTION_DOT = .14394E-3
MEAN_MOTION_DDOT = 0

CCSDS_OMM_VERS = 2.0
CREATION_DATE  = 
ORIGINATOR     = 

OBJECT_NAME    = TRANSPORTER-15G
OBJECT_ID      = 2025-276G
CENTER_NAME    = EARTH
REF_FRAME      = TEME
TIME_SYSTEM    = UTC
MEAN_ELEMENT_THEORY = SGP/SGP4

EPOCH          = 2025-12-27T18:55:34.240800
MEAN_MOTION    = 15.16667919
ECCENTRICITY   = .0005613
INCLINATION    = 97.4390
RA_OF_ASC_NODE = 73.2499
ARG_OF_PERICENTER = 228.2440
MEAN_ANOMALY   = 131.8314

EPHEMERIS_TYPE = 0
CLASSIFICATION_TYPE = U
NORAD_CAT_ID   = 66672
ELEMENT_SET_NO = 999
REV_AT_EPOCH   = 440
BSTAR          = .31969E-3
MEAN_MOTION_DOT = .6194E-4
MEAN_MOTION_DDOT = 0

CCSDS_OMM_VERS = 2.0
CREATION_DATE  = 
ORIGINATOR     = 

OBJECT_NAME    = TRANSPORTER-15H
OBJECT_ID      = 2025-276H
CENTER_NAME    = EARTH
REF_FRAME      = TEME
TIME_SYSTEM    = UTC
MEAN_ELEMENT_THEORY = SGP/SGP4

EPOCH          = 2025-12-27T09:06:45.578880
MEAN_MOTION    = 15.20590437
ECCENTRICITY   = .0023173
INCLINATION    = 97.4328
RA_OF_ASC_NODE = 72.8449
ARG_OF_PERICENTER = 289.0638
MEAN_ANOMALY   = 70.8087

EPHEMERIS_TYPE = 0
CLASSIFICATION_TYPE = U
NORAD_CAT_ID   = 66673
ELEMENT_SET_NO = 999
REV_AT_EPOCH   = 434
BSTAR          = -.46481E-1
MEAN_MOTION_DOT = -.950427E-2
MEAN_MOTION_DDOT = 0

CCSDS_OMM_VERS = 2.0
CREATION_DATE  = 
ORIGINATOR     = 

OBJECT_NAME    = TRANSPORTER-15J
OBJECT_ID      = 2025-276J
CENTER_NAME    = EARTH
REF_FRAME      = TEME
TIME_SYSTEM    = UTC
MEAN_ELEMENT_THEORY = SGP/SGP4

EPOCH          = 2025-12-27T18:52:28.492896
MEAN_MOTION    = 15.16796613
ECCENTRICITY   = .0005153
INCLINATION    = 97.4367
RA_OF_ASC_NODE = 73.2449
ARG_OF_PERICENTER = 232.7047
MEAN_ANOMALY   = 127.3717

EPHEMERIS_TYPE = 0
CLASSIFICATION_TYPE = U
NORAD_CAT_ID   = 66674
ELEMENT_SET_NO = 999
REV_AT_EPOCH   = 440
BSTAR          = .49022E-3
MEAN_MOTION_DOT = .9572E-4
MEAN_MOTION_DDOT = 0

CCSDS_OMM_VERS = 2.0
CREATION_DATE  = 
ORIGINATOR     = 

OBJECT_NAME    = TRANSPORTER-15K
OBJECT_ID      = 2025-276K
CENTER_NAME    = EARTH
REF_FRAME      = TEME
TIME_SYSTEM    = UTC
MEAN_ELEMENT_THEORY = SGP/SGP4

EPOCH          = 2025-12-27T10:53:14.241120
MEAN_MOTION    = 15.17118493
ECCENTRICITY   = .0005159
INCLINATION    = 97.4381
RA_OF_ASC_NODE = 72.9300
ARG_OF_PERICENTER = 238.5367
MEAN_ANOMALY   = 121.5363

EPHEMERIS_TYPE = 0
CLASSIFICATION_TYPE = U
NORAD_CAT_ID   = 66675
ELEMENT_SET_NO = 999
REV_AT_EPOCH   = 435
BSTAR          = .70796E-3
MEAN_MOTION_DOT = .1399E-3
MEAN_MOTION_DDOT = 0

CCSDS_OMM_VERS = 2.0
CREATION_DATE  = 
ORIGINATOR     = 

OBJECT_NAME    = TRANSPORTER-15L
OBJECT_ID      = 2025-276L
CENTER_NAME    = EARTH
REF_FRAME      = TEME
TIME_SYSTEM    = UTC
MEAN_ELEMENT_THEORY = SGP/SGP4

EPOCH          = 2025-12-27T06:08:24.691776
MEAN_MOTION    = 15.22294330
ECCENTRICITY   = .0024796
INCLINATION    = 97.4375
RA_OF_ASC_NODE = 72.7381
ARG_OF_PERICENTER = 254.3833
MEAN_ANOMALY   = 105.4666

EPHEMERIS_TYPE = 0
CLASSIFICATION_TYPE = U
NORAD_CAT_ID   = 66676
ELEMENT_SET_NO = 999
REV_AT_EPOCH   = 432
BSTAR          = .38399E-1
MEAN_MOTION_DOT = .963103E-2
MEAN_MOTION_DDOT = 0

